[{"OBJECT_NAME":"STARLINK-3832","OBJECT_ID":"2022-052BA","EPOCH":"2026-03-09T17:27:42.180192","MEAN_MOTION":15.08839779,"ECCENTRICITY":0.00014736,"INCLINATION":53.2169,"RA_OF_ASC_NODE":258.9908,"ARG_OF_PERICENTER":82.0163,"MEAN_ANOMALY":278.0997,"EPHEMERIS_TYPE":0,"CLASSIFICATION_TYPE":"U","NORAD_CAT_ID":52646,"ELEMENT_SET_NO":999,"REV_AT_EPOCH":21114,"BSTAR":0.00013744745,"MEAN_MOTION_DOT":1.9e-5,"MEAN_MOTION_DDOT":0},{"OBJECT_NAME":"THOR ABLESTAR DEB","OBJECT_ID":"1961-015HM","EPOCH":"2026-03-09T12:53:31.788672","MEAN_MOTION":15.12609006,"ECCENTRICITY":0.0020802,"INCLINATION":66.4912,"RA_OF_ASC_NODE":108.7707,"ARG_OF_PERICENTER":275.236,"MEAN_ANOMALY":209.827,"EPHEMERIS_TYPE":0,"CLASSIFICATION_TYPE":"U","NORAD_CAT_ID":660,"ELEMENT_SET_NO":999,"REV_AT_EPOCH":37032,"BSTAR":0.0020976473,"MEAN_MOTION_DOT":0.00036985,"MEAN_MOTION_DDOT":0}]
